{"type": "FeatureCollection", "features": [ {"type": "Feature", "properties": {"norad_id": 34464, "name": "COSMOS 2251 DEB", "group": "cosmos-2251-debris", "lat": -39.93635704686558, "lon": -77.63237425185119, "alt_km": 485.1434085070905, "timestamp": "2025-12-07T22:37:43.476413+00:00", "meta": {"OBJECT_NAME": "COSMOS 2251 DEB", "OBJECT_ID": "1993-036TH", "EPOCH": "2025-12-07T01:12:10.355904", "MEAN_MOTION": 15.25827994, "ECCENTRICITY": 0.00169394, "INCLINATION": 73.9911, "RA_OF_ASC_NODE": 90.3516, "ARG_OF_PERICENTER": 264.9749, "MEAN_ANOMALY": 94.9518, "EPHEMERIS_TYPE": 0, "CLASSIFICATION_TYPE": "U", "NORAD_CAT_ID": 34464, "ELEMENT_SET_NO": 999, "REV_AT_EPOCH": 89753, "BSTAR": 0.0042093471, "MEAN_MOTION_DOT": 0.00109717, "MEAN_MOTION_DDOT": 0}, "tle": {"line1": "1 34464U 93036TH  25341.05011986  .00109717  00000+0  42093-2 0  9991", "line2": "2 34464  73.9911  90.3516 0016939 264.9749  94.9518 15.25827994897536"}}, "geometry": {"type": "Point", "coordinates": [-77.63237425185119, -39.93635704686558]}}, {"type": "Feature", "properties": {"norad_id": 34468, "name": "COSMOS 2251 DEB", "group": "cosmos-2251-debris", "lat": 7.809061732367875, "lon": 128.44455190251492, "alt_km": 740.4667883250295, "timestamp": "2025-12-07T22:37:43.476424+00:00", "meta": {"OBJECT_NAME": "COSMOS 2251 DEB", "OBJECT_ID": "1993-036TM", "EPOCH": "2025-12-07T04:20:48.736032", "MEAN_MOTION": 14.47602163, "ECCENTRICITY": 0.00763369, "INCLINATION": 74.0126, "RA_OF_ASC_NODE": 127.6177, "ARG_OF_PERICENTER": 273.6668, "MEAN_ANOMALY": 85.5764, "EPHEMERIS_TYPE": 0, "CLASSIFICATION_TYPE": "U", "NORAD_CAT_ID": 34468, "ELEMENT_SET_NO": 999, "REV_AT_EPOCH": 88381, "BSTAR": 0.00060325731, "MEAN_MOTION_DOT": 2.275e-05, "MEAN_MOTION_DDOT": 0}, "tle": {"line1": "1 34468U 93036TM  25341.18111963  .00002275  00000+0  60326-3 0  9996", "line2": "2 34468  74.0126 127.6177 0076336 273.6668  85.5764 14.47602163883818"}}, "geometry": {"type": "Point", "coordinates": [128.44455190251492, 7.809061732367875]}}, {"type": "Feature", "properties": {"norad_id": 34472, "name": "COSMOS 2251 DEB", "group": "cosmos-2251-debris", "lat": -66.37817821797236, "lon": 65.30839401640492, "alt_km": 844.2620005593062, "timestamp": "2025-12-07T22:37:43.476434+00:00", "meta": {"OBJECT_NAME": "COSMOS 2251 DEB", "OBJECT_ID": "1993-036TR", "EPOCH": "2025-12-05T14:54:42.312384", "MEAN_MOTION": 13.70313607, "ECCENTRICITY": 0.03279919, "INCLINATION": 74.0837, "RA_OF_ASC_NODE": 109.8506, "ARG_OF_PERICENTER": 242.3718, "MEAN_ANOMALY": 114.375, "EPHEMERIS_TYPE": 0, "CLASSIFICATION_TYPE": "U", "NORAD_CAT_ID": 34472, "ELEMENT_SET_NO": 999, "REV_AT_EPOCH": 83629, "BSTAR": 0.0014763428, "MEAN_MOTION_DOT": 1.882e-05, "MEAN_MOTION_DDOT": 0}, "tle": {"line1": "1 34472U 93036TR  25339.62132306  .00001882  00000+0  14763-2 0  9997", "line2": "2 34472  74.0837 109.8506 0327991 242.3718 114.3750 13.70313607836298"}}, "geometry": {"type": "Point", "coordinates": [65.30839401640492, -66.37817821797236]}}, {"type": "Feature", "properties": {"norad_id": 34474, "name": "COSMOS 2251 DEB", "group": "cosmos-2251-debris", "lat": 20.26006383776191, "lon": 148.50440285278907, "alt_km": 915.9328973070515, "timestamp": "2025-12-07T22:37:43.476444+00:00", "meta": {"OBJECT_NAME": "COSMOS 2251 DEB", "OBJECT_ID": "1993-036TT", "EPOCH": "2025-12-06T23:50:36.818880", "MEAN_MOTION": 14.06356292, "ECCENTRICITY": 0.01979658, "INCLINATION": 74.0779, "RA_OF_ASC_NODE": 336.2092, "ARG_OF_PERICENTER": 51.5533, "MEAN_ANOMALY": 340.3427, "EPHEMERIS_TYPE": 0, "CLASSIFICATION_TYPE": "U", "NORAD_CAT_ID": 34474, "ELEMENT_SET_NO": 999, "REV_AT_EPOCH": 85428, "BSTAR": 0.0024370484, "MEAN_MOTION_DOT": 4.781e-05, "MEAN_MOTION_DDOT": 0}, "tle": {"line1": "1 34474U 93036TT  25340.99348170  .00004781  00000+0  24370-2 0  9995", "line2": "2 34474  74.0779 336.2092 0197965  51.5533 340.3427 14.06356292854280"}}, "geometry": {"type": "Point", "coordinates": [148.50440285278907, 20.26006383776191]}}, {"type": "Feature", "properties": {"norad_id": 34476, "name": "COSMOS 2251 DEB", "group": "cosmos-2251-debris", "lat": -6.026417097956454, "lon": -87.67508805765127, "alt_km": 1089.7203646252965, "timestamp": "2025-12-07T22:37:43.476455+00:00", "meta": {"OBJECT_NAME": "COSMOS 2251 DEB", "OBJECT_ID": "1993-036TV", "EPOCH": "2025-12-06T17:54:22.363488", "MEAN_MOTION": 13.81942148, "ECCENTRICITY": 0.0319344, "INCLINATION": 74.0061, "RA_OF_ASC_NODE": 92.6058, "ARG_OF_PERICENTER": 313.5001, "MEAN_ANOMALY": 43.9973, "EPHEMERIS_TYPE": 0, "CLASSIFICATION_TYPE": "U", "NORAD_CAT_ID": 34476, "ELEMENT_SET_NO": 999, "REV_AT_EPOCH": 83555, "BSTAR": 0.0048589185, "MEAN_MOTION_DOT": 7.676e-05, "MEAN_MOTION_DDOT": 0}, "tle": {"line1": "1 34476U 93036TV  25340.74609217  .00007676  00000+0  48589-2 0  9996", "line2": "2 34476  74.0061  92.6058 0319344 313.5001  43.9973 13.81942148835553"}}, "geometry": {"type": "Point", "coordinates": [-87.67508805765127, -6.026417097956454]}}, {"type": "Feature", "properties": {"norad_id": 34477, "name": "COSMOS 2251 DEB", "group": "cosmos-2251-debris", "lat": -49.052634926541586, "lon": -82.01963766173549, "alt_km": 665.2070558990217, "timestamp": "2025-12-07T22:37:43.476466+00:00", "meta": {"OBJECT_NAME": "COSMOS 2251 DEB", "OBJECT_ID": "1993-036TW", "EPOCH": "2025-12-07T06:52:18.301152", "MEAN_MOTION": 14.56800458, "ECCENTRICITY": 0.00769135, "INCLINATION": 73.9795, "RA_OF_ASC_NODE": 79.8927, "ARG_OF_PERICENTER": 268.0424, "MEAN_ANOMALY": 122.3596, "EPHEMERIS_TYPE": 0, "CLASSIFICATION_TYPE": "U", "NORAD_CAT_ID": 34477, "ELEMENT_SET_NO": 999, "REV_AT_EPOCH": 88546, "BSTAR": 0.0013821388, "MEAN_MOTION_DOT": 6.416e-05, "MEAN_MOTION_DDOT": 0}, "tle": {"line1": "1 34477U 93036TW  25341.28632293  .00006416  00000+0  13821-2 0  9999", "line2": "2 34477  73.9795  79.8927 0076913 268.0424 122.3596 14.56800458885461"}}, "geometry": {"type": "Point", "coordinates": [-82.01963766173549, -49.052634926541586]}}, {"type": "Feature", "properties": {"norad_id": 34478, "name": "COSMOS 2251 DEB", "group": "cosmos-2251-debris", "lat": -44.550460382239514, "lon": 0.3871565039084777, "alt_km": 543.6429060104219, "timestamp": "2025-12-07T22:37:43.476476+00:00", "meta": {"OBJECT_NAME": "COSMOS 2251 DEB", "OBJECT_ID": "1993-036TX", "EPOCH": "2025-12-07T05:50:15.618048", "MEAN_MOTION": 15.07339888, "ECCENTRICITY": 0.00358719, "INCLINATION": 74.04, "RA_OF_ASC_NODE": 18.188, "ARG_OF_PERICENTER": 240.5853, "MEAN_ANOMALY": 237.2908, "EPHEMERIS_TYPE": 0, "CLASSIFICATION_TYPE": "U", "NORAD_CAT_ID": 34478, "ELEMENT_SET_NO": 999, "REV_AT_EPOCH": 88890, "BSTAR": 0.0039437045, "MEAN_MOTION_DOT": 0.00060963, "MEAN_MOTION_DDOT": 0}, "tle": {"line1": "1 34478U 93036TX  25341.24323632  .00060963  00000+0  39437-2 0  9998", "line2": "2 34478  74.0400  18.1880 0035871 240.5853 237.2908 15.07339888888906"}}, "geometry": {"type": "Point", "coordinates": [0.3871565039084777, -44.550460382239514]}}, {"type": "Feature", "properties": {"norad_id": 34481, "name": "COSMOS 2251 DEB", "group": "cosmos-2251-debris", "lat": 52.920037142416376, "lon": -140.09636219582632, "alt_km": 798.0190916648653, "timestamp": "2025-12-07T22:37:43.476487+00:00", "meta": {"OBJECT_NAME": "COSMOS 2251 DEB", "OBJECT_ID": "1993-036UA", "EPOCH": "2025-12-06T23:23:31.679808", "MEAN_MOTION": 14.32515801, "ECCENTRICITY": 0.00708902, "INCLINATION": 73.981, "RA_OF_ASC_NODE": 64.0188, "ARG_OF_PERICENTER": 239.4297, "MEAN_ANOMALY": 294.1126, "EPHEMERIS_TYPE": 0, "CLASSIFICATION_TYPE": "U", "NORAD_CAT_ID": 34481, "ELEMENT_SET_NO": 999, "REV_AT_EPOCH": 87366, "BSTAR": 0.0011978111, "MEAN_MOTION_DOT": 3.313e-05, "MEAN_MOTION_DDOT": 0}, "tle": {"line1": "1 34481U 93036UA  25340.97467222  .00003313  00000+0  11978-2 0  9991", "line2": "2 34481  73.9810  64.0188 0070890 239.4297 294.1126 14.32515801873662"}}, "geometry": {"type": "Point", "coordinates": [-140.09636219582632, 52.920037142416376]}}, {"type": "Feature", "properties": {"norad_id": 34482, "name": "COSMOS 2251 DEB", "group": "cosmos-2251-debris", "lat": 23.57235540781016, "lon": -119.94652529128216, "alt_km": 663.721409884728, "timestamp": "2025-12-07T22:37:43.476497+00:00", "meta": {"OBJECT_NAME": "COSMOS 2251 DEB", "OBJECT_ID": "1993-036UB", "EPOCH": "2025-12-07T03:35:23.450208", "MEAN_MOTION": 14.69000107, "ECCENTRICITY": 0.00454684, "INCLINATION": 74.0367, "RA_OF_ASC_NODE": 234.4139, "ARG_OF_PERICENTER": 295.4479, "MEAN_ANOMALY": 215.1875, "EPHEMERIS_TYPE": 0, "CLASSIFICATION_TYPE": "U", "NORAD_CAT_ID": 34482, "ELEMENT_SET_NO": 999, "REV_AT_EPOCH": 88105, "BSTAR": 0.0032670614, "MEAN_MOTION_DOT": 0.00019482, "MEAN_MOTION_DDOT": 0}, "tle": {"line1": "1 34482U 93036UB  25341.14957697  .00019482  00000+0  32671-2 0  9999", "line2": "2 34482  74.0367 234.4139 0045468 295.4479 215.1875 14.69000107881052"}}, "geometry": {"type": "Point", "coordinates": [-119.94652529128216, 23.57235540781016]}}, {"type": "Feature", "properties": {"norad_id": 34544, "name": "COSMOS 2251 DEB", "group": "cosmos-2251-debris", "lat": 72.28054963629249, "lon": -83.64778817635427, "alt_km": 1312.506053478055, "timestamp": "2025-12-07T22:37:43.476507+00:00", "meta": {"OBJECT_NAME": "COSMOS 2251 DEB", "OBJECT_ID": "1993-036UE", "EPOCH": "2025-12-07T01:17:26.274048", "MEAN_MOTION": 13.54657992, "ECCENTRICITY": 0.03844775, "INCLINATION": 73.915, "RA_OF_ASC_NODE": 213.2347, "ARG_OF_PERICENTER": 242.7224, "MEAN_ANOMALY": 187.1531, "EPHEMERIS_TYPE": 0, "CLASSIFICATION_TYPE": "U", "NORAD_CAT_ID": 34544, "ELEMENT_SET_NO": 999, "REV_AT_EPOCH": 82805, "BSTAR": 0.0003785945, "MEAN_MOTION_DOT": 3.92e-06, "MEAN_MOTION_DDOT": 0}, "tle": {"line1": "1 34544U 93036UE  25341.05377632  .00000392  00000+0  37859-3 0  9997", "line2": "2 34544  73.9150 213.2347 0384477 242.7224 187.1531 13.54657992828055"}}, "geometry": {"type": "Point", "coordinates": [-83.64778817635427, 72.28054963629249]}}]}